CSS (TIANHE)            
1 48274U 21035A   23232.24639566  .00030783  00000+0  35924-3 0  9995
2 48274  41.4733 126.5013 0009389 198.2808 161.7695 15.60910910131846
